C/2024 G5 (Leonard),e,50.3874,316.3962,209.5685,553.2347,0.0000757,0.99466251,0.0000,09/07.0179/2024,2000,g 13.0,4.0
# From MPEC 2024-RQ6
C/2024 G6 (ATLAS),h,02/20.8754/2026,120.4578,250.9518,23.4530,1.002339,6.429333,2000,5.5,4.0
# From MPEC 2024-Q20
C/2024 G7 (ATLAS),h,02/10.1781/2025,131.5177,191.9554,289.6583,1.001918,6.027713,2000,7.0,4.0
# From MPEC 2024-Q05
A/2024 G8,e,97.4087,11.2481,249.1585,142.5864,0.0005789,0.99177740,0.0000,06/15.5979/2024,2000,g 20.0,2.0
# From MPEC 2025-AH4
P/2024 J1 (PANSTARRS),e,13.1604,321.9487,200.3420,3.808432,0.1326126,0.30750430,57.5334,01/18.0/2025,2000,g 14.5,4.0
# From MPEC 2025-AH4
C/2024 J2 (Wierzchos),e,79.2968,189.0595,143.1580,147.4340,0.0005506,0.98771730,0.0000,03/19.7795/2025,2000,g 11.5,4.0
# From MPEC 2024-UA9
C/2024 J3 (ATLAS),h,11/25.2943/2026,75.6374,285.9615,74.0915,1.000891,3.864841,2000,5.0,4.0
# From MPEC 2024-TD8
C/2024 J4 (Lemmon),e,117.5335,19.3005,127.8616,5810,0.0000022,0.99901972,0.0000,04/26.0624/2025,2000,g  8.0,4.0
# From MPEC 2025-AH4
P/2024 K1 (PANSTARRS),e,1.8206,251.6244,349.4033,6.836231,0.0551416,0.49060578,14.7969,01/18.0/2025,2000,g 13.5,4.0
# From MPEC 2024-RQ6
C/2024 L1 (PANSTARRS),e,99.1695,45.1401,171.8160,11.46293,0.0253957,0.53346187,357.5783,01/18.0/2025,2000,g 10.0,4.0
# From MPEC 2025-AH4
C/2024 L2 (PANSTARRS),h,06/17.7823/2025,139.5869,266.1798,345.9076,1.004569,8.326218,2000,7.5,3.2
# From MPEC 2025-AH4
C/2024 L3 (PANSTARRS),h,11/24.1925/2023,111.5935,294.9956,59.0734,1.005063,6.858231,2000,9.5,4.0
# From MPEC 2024-RQ6
P/2024 L4 (Rankin),e,10.0467,139.7780,53.7010,2.228258,0.2963165,0.69839547,82.5859,01/18.0/2025,2000,g 21.5,4.0
# From MPEC 2025-AH4
C/2024 L5 (ATLAS),h,03/10.3998/2025,166.5733,139.1748,290.5135,1.037403,3.432401,2000,9.0,4.0
# From MPEC 2025-AH4
C/2024 M1 (ATLAS),e,73.7099,76.2151,345.5966,29.92648,0.0060203,0.94308203,0.3551,01/18.0/2025,2000,g 12.0,4.0
# From MPEC 2024-RQ6
C/2024 N1 (PANSTARRS),h,10/18.8711/2025,88.7750,323.0142,91.2515,1.000951,4.398176,2000,10.5,4.0
# From MPEC 2025-AE4
C/2024 N3 (Sarneczky),h,04/11.3806/2025,88.7288,82.6078,86.8780,1.001074,5.014585,2000,8.0,4.0
# From MPEC 2025-AH4
C/2024 N4 (Sarneczky),h,01/09.9563/2025,49.7714,339.6621,116.6758,1.004538,5.397633,2000,7.5,4.0
# From MPEC 2024-PC5
C/2024 O1 (PANSTARRS),h,01/28.8280/2023,59.0764,303.3384,349.9115,1.001015,6.607775,2000,8.5,4.0
# From MPEC 2024-UA9
P/2024 O2 (PANSTARRS),e,28.9750,6.8055,310.7920,7.384887,0.0491121,0.49929445,13.3967,01/18.0/2025,2000,g 12.0,4.0
# From MPEC 2025-AH4
P/2024 OC2 (PANSTARRS),e,7.6712,136.6179,258.5377,2.625736,0.2316474,0.77422373,23.3207,01/18.0/2025,2000,g 20.5,4.0
# From MPEC 2025-AE5
C/2024 PN7 (PANSTARRS),e,101.2100,358.5825,74.2753,67.29634,0.0017853,0.97734634,0.0000,12/06.4418/2024,2000,g 15.2,4.0
# From MPEC 2024-UQ8
P/2024 Q1 (PANSTARRS),e,5.0151,23.1381,284.4264,3.518121,0.1493612,0.53482184,32.4779,01/18.0/2025,2000,g 17.0,4.0
# From MPEC 2024-TD8
C/2024 Q3 (PANSTARRS),h,03/05.2346/2025,121.3764,337.2850,70.1320,1.001425,2.091469,2000,15.0,4.0
# From MPEC 2025-A40
C/2024 Q4 (PANSTARRS),e,3.3115,324.3084,132.9994,985.2122,0.0000319,0.99449994,0.0000,11/12.1400/2024,2000,g 10.0,4.0
# From MPEC 2024-TP3
P/2024 R1 (PANSTARRS),e,12.7364,84.9821,230.6009,3.451374,0.1537149,0.49296787,33.2482,01/18.0/2025,2000,g 18.0,4.0
# From MPEC 2024-TD8
P/2024 R2 (PANSTARRS),e,15.1053,193.0242,203.9027,3.139383,0.1771894,0.26665489,19.1934,01/18.0/2025,2000,g 15.5,4.0
# From MPEC 2024-YC7
P/2024 R3 (PANSTARRS),e,14.7290,33.2794,309.1521,3.198702,0.1722834,0.26680073,43.9461,01/18.0/2025,2000,g 15.0,4.0
# From MPEC 2024-YC7
C/2024 R4 (PANSTARRS),h,10/26.5846/2027,95.3518,345.9306,108.9785,1.002718,4.409951,2000,6.5,4.0
# From MPEC 2024-VB7
C/2024 S1 (ATLAS),e,141.9152,347.2223,69.2242,87.54005,0.0012034,0.99990904,0.0000,10/28.4859/2024,2000,g 15.5,4.0
# From MPEC 2025-A40
P/2024 S2 (Rankin),e,7.5248,8.3530,49.1894,5.042831,0.0870347,0.59387064,10.7584,01/18.0/2025,2000,g 15.0,4.0
# From MPEC 2025-AH4
P/2024 T1 (Rankin),e,17.6195,279.7095,164.8767,6.604109,0.0580741,0.65369524,6.3628,01/18.0/2025,2000,g 14.5,4.0
# From MPEC 2025-AH4
P/2024 T2 (Rankin),e,12.9284,113.0606,343.8305,6.175615,0.0642220,0.68063354,2.6110,01/18.0/2025,2000,g 16.0,4.0
# From MPEC 2025-A40
C/2024 T3 (PANSTARRS),e,53.4833,74.8319,336.8814,83.02215,0.0013029,0.95523777,359.9268,01/18.0/2025,2000,g 11.5,4.0
# From MPEC 2025-AE4
C/2024 T5 (ATLAS),h,05/06.4002/2027,52.3872,100.6825,352.4168,1.001862,3.843535,2000,5.5,4.0
# From MPEC 2025-AH4
C/2024 U1 (PANSTARRS),e,128.7527,270.2614,188.0770,546.9862,0.0000770,0.99115902,0.0000,06/30.5008/2024,2000,g 10.0,4.0
# From MPEC 2024-YO4
A/2024 U2,e,120.6197,56.0641,29.9123,14395,0.0000006,0.99943221,0.0000,01/16.8700/2026,2000,g 12.1,2.0
# From MPEC 2025-AH4
C/2024 V1 (Borisov),e,54.6219,328.1967,168.6563,233.2991,0.0002766,0.99006184,0.0000,04/04.0908/2025,2000,g 14.8,4.0
# From MPEC 2024-YC7
C/2024 V2 (Sarneczky),e,95.9718,102.2017,13.7170,39.27398,0.0040045,0.96835196,0.3010,01/18.0/2025,2000,g 19.0,4.0
# From MPEC 2024-XR9
C/2024 W1 (PANSTARRS),e,83.2050,310.7263,256.8074,43.51315,0.0034338,0.94118184,359.7929,01/18.0/2025,2000,g 15.0,4.0
# From MPEC 2024-YO9
A/2024 W2,h,02/27.6986/2025,116.6264,241.9464,168.0568,1.000137,3.719703,2000,15.6,2.0
# From MPEC 2025-AE4
C/2024 X1 (Fazekas),e,6.4574,352.3416,124.0268,9.514677,0.0335825,0.59837399,353.3520,01/18.0/2025,2000,g 11.3,4.0
# From MPEC 2025-AE4
C/2024 X2 (ATLAS),e,109.2331,122.4762,315.7780,52.54568,0.0025876,0.93001350,359.5576,01/18.0/2025,2000,g  9.6,4.0
# From MPEC 2025-A40
P/2024 X3 (PANSTARRS),e,2.9724,113.3621,352.9369,6.974782,0.0535067,0.62526969,7.1825,01/18.0/2025,2000,g 14.6,4.0
# From MPEC 2025-A40
C/2024 X4 (PANSTARRS),e,34.6687,258.9442,153.2795,10.05615,0.0309070,0.64152200,352.9883,01/18.0/2025,2000,g 12.6,4.0
# From MPEC 2025-AE4
C/2024 Y1 (Masek),e,64.7889,112.4892,238.2138,90.02234,0.0011539,0.99085245,0.0000,11/26.9139/2024,2000,g 17.6,4.0
# From MPEC 2025-AE4
A/2025 A1,h,03/12.3844/2027,33.4084,101.3297,67.9246,1.000963,5.353681,2000,11.0,2.0
# From MPEC 2025-AH4
P/2025 A2 (PANSTARRS),e,20.7335,189.3196,278.1076,5.084952,0.0859555,0.32219686,8.9381,01/18.0/2025,2000,g 13.2,4.0
# From MPEC 2025-AH8
C/2025 A3 (Tsuchinshan),e,10.0229,322.4684,227.2742,10.30689,0.0297860,0.44860680,345.9364,01/18.0/2025,2000,g  9.0,4.0
# From MPEC 2025-B11
C/2025 A4 (PANSTARRS),e,32.0289,69.8632,102.9890,10.95756,0.0271727,0.65116068,0.1067,01/18.0/2025,2000,g 12.4,4.0
# From  98, 1083
1P/Halley,e,162.2078,59.6897,112.6001,17.86513,0.0130525,0.96722104,185.3649,01/18.0/2025,2000,g  4.0,6.0
# From MPEC 2025-AH4
2P/Encke,e,11.3420,334.0141,187.2805,2.218246,0.2983249,0.84705117,135.2759,01/18.0/2025,2000,g 11.5,6.0
# From  76, 1135
3D/Biela,e,7.8877,276.1879,192.2937,3.539239,0.1480264,0.76753968,336.4341,01/18.0/2025,2000,g 11.0,6.0
# From  76, 1135
3D-A/Biela,e,7.2156,276.6835,192.1208,3.550125,0.1473461,0.76711105,6.9073,01/18.0/2025,2000,g 11.0,6.0
# From  76, 1135
3D-B/Biela,e,7.8798,276.2027,192.2548,3.539978,0.1479801,0.76783777,336.1639,01/18.0/2025,2000,g 11.0,6.0
# From MPEC 2023-FK0
4P/Faye,e,8.0050,192.9174,207.1293,3.829471,0.1315212,0.57651295,161.3590,01/18.0/2025,2000,g  8.0,6.0
# From  27, 116
5D/Brorsen,e,18.6308,94.9065,20.3000,3.158338,0.1755966,0.83783607,112.6897,01/18.0/2025,2000,g 10.5,6.0
# From MPEC 2022-WD2
6P/d'Arrest,e,19.4991,138.9506,178.0660,3.497665,0.1506734,0.61188063,183.7174,01/18.0/2025,2000,g  7.5,16.0
# From MPEC 2023-A50
7P/Pons-Winnecke,e,22.5134,93.2678,172.4392,3.400971,0.1571447,0.64212817,209.1907,01/18.0/2025,2000,g 10.0,6.0
# From MPEC 2022-HC2
8P/Tuttle,e,54.9841,270.1770,207.4717,5.704787,0.0723344,0.82063561,89.5962,01/18.0/2025,2000,g  8.0,8.0
# From MPEC 2024-YC7
9P/Tempel,e,10.8018,67.4186,184.3471,3.270584,0.1666350,0.48055434,175.8602,01/18.0/2025,2000,g  5.5,10.0
# From MPEC 2025-AH4
10P/Tempel,e,12.0276,117.8022,195.5061,3.063406,0.1838219,0.53739829,256.8424,01/18.0/2025,2000,g  5.0,10.0
# From MPEC 2024-R10
11P/Tempel-Swift-LINEAR,e,14.4344,238.8651,168.0443,3.283325,0.1656659,0.57753200,250.5310,01/18.0/2025,2000,g 17.0,4.0
# From MPEC 2024-UA9
12P/Pons-Brooks,e,74.1929,255.8549,198.9973,17.20615,0.0138095,0.95461389,3.7544,01/18.0/2025,2000,g  5.0,6.0
# From MPEC 2024-UQ8
13P/Olbers,e,44.6667,85.8466,64.4185,16.88086,0.0142106,0.93036727,2.8697,01/18.0/2025,2000,g  5.0,6.0
# From MPEC 2024-LE0
14P/Wolf,e,27.9202,202.0305,159.1921,4.256631,0.1122290,0.35676715,291.6571,01/18.0/2025,2000,g  5.5,12.0
# From MPEC 2022-ED3
15P/Finlay,e,6.7894,13.7465,347.8727,3.510532,0.1498458,0.71629389,192.5260,01/18.0/2025,2000,g 12.0,4.0
# From MPEC 2022-X67
16P/Brooks,e,3.0100,138.8345,245.3659,3.661584,0.1406697,0.48583615,192.7957,01/18.0/2025,2000,g  7.5,10.0
# From MPEC 2023-J29
17P/Holmes,e,19.0092,326.6145,24.6244,3.640942,0.1418676,0.42650936,202.7239,01/18.0/2025,2000,g 10.0,6.0
# From  19, 80
18D/Perrine-Mrkos,e,17.657,158.457,238.233,3.88307,0.128808,0.5896466,18.265,01/18.0/2025,2000,g  9.0,4.0
# From MPEC 2024-YC7
19P/Borrelly,e,29.3180,74.2141,351.9991,3.608165,0.1438052,0.63787080,155.4142,01/18.0/2025,2000,g  4.5,10.0
# From MPEC 2024-YC7
21P/Giacobini-Zinner,e,32.0502,195.3323,172.9331,3.491833,0.1510511,0.71105290,349.9767,01/18.0/2025,2000,g  9.0,6.0
# From MPEC 2024-L77
22P/Kopff,e,4.7820,120.3657,162.9090,3.422161,0.1556874,0.55431491,161.1079,01/18.0/2025,2000,g  3.0,10.4
# From MPC 14747
23P/Brorsen-Metcalf,e,19.4385,311.2792,129.8844,16.93915,0.0141373,0.97260740,0.0000,05/25.9164/2059,2000,g 10.0,6.0
# From MPC110085
24P/Schaumasse,e,11.5061,78.3698,58.4001,4.056381,0.1206413,0.70813362,317.1337,01/18.0/2025,2000,g  6.5,14.0
# From NK 378
25D/Neujmin 2,e,2.8087,279.9736,244.7871,3.222333,0.1703917,0.55052844,340.6774,01/18.0/2025,2000,g 12.5,6.0
# From MPEC 2024-TP3
26P/Grigg-Skjellerup,e,22.4342,211.5359,2.1299,3.014926,0.1882735,0.64056525,73.3666,01/18.0/2025,2000,g 12.0,16.0
# From MPC 78188
